NORAD_CAT_ID,OBJECT_NAME,OBJECT_TYPE,EPOCH,MEAN_MOTION,ECCENTRICITY,INCLINATION,RA_OF_ASC_NODE,ARG_OF_PERICENTER,MEAN_ANOMALY,BSTAR,MEAN_MOTION_DOT,MEAN_MOTION_DDOT,TLE_LINE0,TLE_LINE1,TLE_LINE2,SEMIMAJOR_AXIS,PERIOD,APOGEE,PERIGEE,DECAYED
53015.0,STARLINK-4262,PAYLOAD,2023-11-10 16:39:24,15.08841678,0.0001874,53.2169,299.903,83.8366,276.2839,-0.00010019,-1.882e-05,0.0,0 STARLINK-4262,1 53015U 22076AF  23314.69403326 -.00001882  00000-0 -10019-3 0  9992,2 53015  53.2169 299.9030 0001874  83.8366 276.2839 15.08841678 75139,6917.875,95.437,541.037,538.444,0.0
53015.0,STARLINK-4262,PAYLOAD,2023-11-11 08:33:15,15.08845904,0.0001552,53.2178,296.9248,98.1768,261.9401,6.2959e-05,7.14e-06,0.0,0 STARLINK-4262,1 53015U 22076AF  23315.35643014  .00000714  00000-0  62959-4 0  9998,2 53015  53.2178 296.9248 0001552  98.1768 261.9401 15.08845904 74765,6917.862,95.437,540.801,538.654,0.0
53015.0,STARLINK-4262,PAYLOAD,2023-11-11 16:30:11,15.08841769,0.000162,53.2175,295.4382,98.7035,261.4141,0.00024996,3.693e-05,0.0,0 STARLINK-4262,1 53015U 22076AF  23315.68763338  .00003693  00000-0  24996-3 0  9993,2 53015  53.2175 295.4382 0001620  98.7035 261.4141 15.08841769 74811,6917.875,95.437,540.861,538.619,0.0
53015.0,STARLINK-4262,PAYLOAD,2023-11-12 03:37:53,15.08845468,0.0001715,53.2178,293.3565,96.0169,264.1019,0.00025769,3.816e-05,0.0,0 STARLINK-4262,1 53015U 22076AF  23316.15131223  .00003816  00000-0  25769-3 0  9994,2 53015  53.2178 293.3565 0001715  96.0169 264.1019 15.08845468 75352,6917.864,95.437,540.915,538.542,0.0
53015.0,STARLINK-4262,PAYLOAD,2023-11-12 08:24:02,15.08849991,0.0001737,53.2175,292.4642,96.7577,263.3613,0.00039765,6.048e-05,0.0,0 STARLINK-4262,1 53015U 22076AF  23316.35003109  .00006048  00000-0  39765-3 0  9998,2 53015  53.2175 292.4642 0001737  96.7577 263.3613 15.08849991 74916,6917.85,95.437,540.916,538.513,0.0
53015.0,STARLINK-4262,PAYLOAD,2023-11-13 03:28:40,15.08844435,0.0001718,53.2181,288.8939,100.1362,259.9824,0.00019914,2.883e-05,0.0,0 STARLINK-4262,1 53015U 22076AF  23317.14491239  .00002883  00000-0  19914-3 0  9998,2 53015  53.2181 288.8939 0001718 100.1362 259.9824 15.08844435 75501,6917.867,95.437,540.92,538.543,0.0
53015.0,STARLINK-4262,PAYLOAD,2023-11-13 05:04:03,15.08850324,0.0001548,53.2177,288.5984,92.3119,267.8051,0.00031548,4.738e-05,0.0,0 STARLINK-4262,1 53015U 22076AF  23317.21115091  .00004738  00000-0  31548-3 0  9993,2 53015  53.2177 288.5984 0001548  92.3119 267.8051 15.08850324 75049,6917.849,95.437,540.785,538.643,0.0
53015.0,STARLINK-4262,PAYLOAD,2023-11-13 22:33:18,15.08839658,0.0001501,53.2177,285.3317,91.9807,268.1357,4.9934e-05,5.07e-06,0.0,0 STARLINK-4262,1 53015U 22076AF  23317.93979386  .00000507  00000-0  49934-4 0  9996,2 53015  53.2177 285.3317 0001501  91.9807 268.1357 15.08839658 75154,6917.881,95.438,540.785,538.708,0.0
53015.0,STARLINK-4262,PAYLOAD,2023-11-14 04:54:50,15.08847715,0.0001512,53.2168,284.1402,97.4709,262.6455,0.00017124,2.439e-05,0.0,0 STARLINK-4262,1 53015U 22076AF  23318.20474952  .00002439  00000-0  17124-3 0  9997,2 53015  53.2168 284.1402 0001512  97.4709 262.6455 15.08847715 75667,6917.857,95.437,540.768,538.676,0.0
53015.0,STARLINK-4262,PAYLOAD,2023-11-14 20:48:42,15.08835923,0.0001528,53.218,281.1705,104.4876,255.6286,7.2155e-06,-1.73e-06,0.0,0 STARLINK-4262,1 53015U 22076AF  23318.86715511 -.00000173  00000-0  72155-5 0  9999,2 53015  53.2180 281.1705 0001528 104.4876 255.6286 15.08835923 75296,6917.893,95.438,540.815,538.701,0.0
53015.0,STARLINK-4262,PAYLOAD,2023-11-15 03:10:14,15.08833278,0.0001465,53.2172,279.9782,96.6144,263.5015,-7.3884e-05,-1.463e-05,0.0,0 STARLINK-4262,1 53015U 22076AF  23319.13211788 -.00001463  00000-0 -73884-4 0  9990,2 53015  53.2172 279.9782 0001465  96.6144 263.5015 15.08833278 75803,6917.901,95.438,540.779,538.752,0.0
53015.0,STARLINK-4262,PAYLOAD,2023-11-15 14:17:57,15.08835976,0.0001444,53.2175,277.8974,90.1925,269.9233,4.3207e-05,4e-06,0.0,0 STARLINK-4262,1 53015U 22076AF  23319.59579876  .00000400  00000-0  43207-4 0  9999,2 53015  53.2175 277.8974 0001444  90.1925 269.9233 15.08835976 75404,6917.893,95.438,540.757,538.759,0.0
53015.0,STARLINK-4262,PAYLOAD,2023-11-16 06:11:48,15.08844918,0.0001543,53.2173,274.923,90.5854,269.5315,0.00015177,2.129e-05,0.0,0 STARLINK-4262,1 53015U 22076AF  23320.25819638  .00002129  00000-0  15177-3 0  9991,2 53015  53.2173 274.9230 0001543  90.5854 269.5315 15.08844918 75975,6917.865,95.437,540.798,538.663,0.0
53015.0,STARLINK-4262,PAYLOAD,2023-11-17 02:51:49,15.08839136,0.0001717,53.218,271.0569,84.201,275.9178,0.00012202,1.654e-05,0.0,0 STARLINK-4262,1 53015U 22076AF  23321.11932200  .00001654  00000-0  12202-3 0  9996,2 53015  53.2180 271.0569 0001717  84.2010 275.9178 15.08839136 76103,6917.883,95.438,540.936,538.56,0.0
53015.0,STARLINK-4262,PAYLOAD,2023-11-17 13:59:31,15.08840292,0.0001585,53.2183,268.9742,89.5002,270.6172,9.0715e-05,1.156e-05,0.0,0 STARLINK-4262,1 53015U 22076AF  23321.58300079  .00001156  00000-0  90715-4 0  9993,2 53015  53.2183 268.9742 0001585  89.5002 270.6172 15.08840292 75702,6917.879,95.438,540.841,538.648,0.0
53015.0,STARLINK-4262,PAYLOAD,2023-11-18 13:50:18,15.08842866,0.0001605,53.2181,264.5147,90.5924,269.5252,3.7412e-05,3.07e-06,0.0,0 STARLINK-4262,1 53015U 22076AF  23322.57660111  .00000307  00000-0  37412-4 0  9991,2 53015  53.2181 264.5147 0001605  90.5924 269.5252 15.08842866 75850,6917.872,95.437,540.847,538.626,0.0
53015.0,STARLINK-4262,PAYLOAD,2023-11-18 20:11:50,15.08841212,0.0001551,53.2175,263.3265,87.9297,272.1873,7.2551e-05,8.67e-06,0.0,0 STARLINK-4262,1 53015U 22076AF  23322.84156154  .00000867  00000-0  72551-4 0  9992,2 53015  53.2175 263.3265 0001551  87.9297 272.1873 15.08841212 76364,6917.877,95.437,540.815,538.669,0.0
53015.0,STARLINK-4262,PAYLOAD,2023-11-19 13:41:05,15.08845483,0.0001572,53.2179,260.0557,87.6567,272.4605,9.1674e-05,1.171e-05,0.0,0 STARLINK-4262,1 53015U 22076AF  23323.57019710  .00001171  00000-0  91674-4 0  9995,2 53015  53.2179 260.0557 0001572  87.6567 272.4605 15.08845483 76007,6917.864,95.437,540.816,538.641,0.0
53015.0,STARLINK-4262,PAYLOAD,2023-11-19 20:02:37,15.088463,0.0001589,53.2178,258.866,88.4072,271.7102,9.3573e-05,1.202e-05,0.0,0 STARLINK-4262,1 53015U 22076AF  23323.83515575  .00001202  00000-0  93573-4 0  9999,2 53015  53.2178 258.8660 0001589  88.4072 271.7102 15.08846300 76041,6917.861,95.437,540.825,538.627,0.0
53015.0,STARLINK-4262,PAYLOAD,2023-11-20 02:24:09,15.08853638,0.0001506,53.2179,257.6759,96.8037,263.3127,9.2802e-05,1.19e-05,0.0,0 STARLINK-4262,1 53015U 22076AF  23324.10010919  .00001190  00000-0  92802-4 0  9992,2 53015  53.2179 257.6759 0001506  96.8037 263.3127 15.08853638 76553,6917.839,95.437,540.746,538.662,0.0
53015.0,STARLINK-4262,PAYLOAD,2023-11-20 05:34:55,15.08852267,0.0001553,53.2175,257.0806,96.3828,263.7341,0.00016532,2.345e-05,0.0,0 STARLINK-4262,1 53015U 22076AF  23324.23258820  .00002345  00000-0  16532-3 0  9999,2 53015  53.2175 257.0806 0001553  96.3828 263.7341 15.08852267 76101,6917.843,95.437,540.782,538.634,0.0
53015.0,STARLINK-4262,PAYLOAD,2023-11-21 02:14:57,15.0884268,0.0001487,53.2179,253.2158,90.1345,269.9818,8.3149e-05,1.036e-05,0.0,0 STARLINK-4262,1 53015U 22076AF  23325.09371744  .00001036  00000-0  83149-4 0  9990,2 53015  53.2179 253.2158 0001487  90.1345 269.9818 15.08842680 76706,6917.872,95.437,540.766,538.709,0.0
53015.0,STARLINK-4262,PAYLOAD,2023-11-21 05:25:43,15.08845294,0.000151,53.217,252.6208,88.8763,271.2402,0.00010152,1.328e-05,0.0,0 STARLINK-4262,1 53015U 22076AF  23325.22619557  .00001328  00000-0  10152-3 0  9999,2 53015  53.2170 252.6208 0001510  88.8763 271.2402 15.08845294 76250,6917.864,95.437,540.774,538.685,0.0
53015.0,STARLINK-4262,PAYLOAD,2023-11-22 05:16:29,15.08852974,0.0001697,53.2168,248.1573,104.9523,255.1657,0.00013171,1.809e-05,0.0,0 STARLINK-4262,1 53015U 22076AF  23326.21978894  .00001809  00000-0  13171-3 0  9999,2 53015  53.2168 248.1573 0001697 104.9523 255.1657 15.08852974 76876,6917.841,95.437,540.88,538.532,0.0
53015.0,STARLINK-4262,PAYLOAD,2023-11-23 00:21:07,15.08845036,0.000204,53.2165,244.5856,120.2322,239.8872,0.00010699,1.415e-05,0.0,0 STARLINK-4262,1 53015U 22076AF  23327.01467209  .00001415  00000-0  10699-3 0  9996,2 53015  53.2165 244.5856 0002040 120.2322 239.8872 15.08845036 76990,6917.865,95.437,541.141,538.319,0.0
53015.0,STARLINK-4262,PAYLOAD,2023-11-23 05:07:17,15.08842708,0.0001968,53.2171,243.6943,112.694,247.426,0.0001378,1.906e-05,0.0,0 STARLINK-4262,1 53015U 22076AF  23327.21339353  .00001906  00000-0  13780-3 0  9995,2 53015  53.2171 243.6943 0001968 112.6940 247.4260 15.08842708 76554,6917.872,95.437,541.099,538.376,0.0
53015.0,STARLINK-4262,PAYLOAD,2023-11-23 22:36:32,15.08832226,0.0002519,53.2157,240.4186,140.5671,219.5505,-0.00012881,-2.338e-05,0.0,0 STARLINK-4262,1 53015U 22076AF  23327.94203794 -.00002338  00000-0 -12881-3 0  9997,2 53015  53.2157 240.4186 0002519 140.5671 219.5505 15.08832226 76664,6917.904,95.438,541.512,538.027,0.0
53015.0,STARLINK-4262,PAYLOAD,2023-11-24 03:22:42,15.08831118,0.0001758,53.2172,239.5298,108.5797,251.5386,-5.2969e-06,-3.72e-06,0.0,0 STARLINK-4262,1 53015U 22076AF  23328.14076391 -.00000372  00000-0 -52969-5 0  9990,2 53015  53.2172 239.5298 0001758 108.5797 251.5386 15.08831118 77169,6917.908,95.438,540.989,538.556,0.0
53015.0,STARLINK-4262,PAYLOAD,2023-11-25 03:13:28,15.08853174,0.0001448,53.2173,235.0722,105.787,254.3282,0.00042631,6.506e-05,0.0,0 STARLINK-4262,1 53015U 22076AF  23329.13435981  .00006506  00000-0  42631-3 0  9990,2 53015  53.2173 235.0722 0001448 105.7870 254.3282 15.08853174 77319,6917.84,95.437,540.707,538.703,0.0
53015.0,STARLINK-4262,PAYLOAD,2023-11-25 22:18:06,15.08862326,0.0001278,53.2162,231.5106,85.7512,274.3626,0.00081001,0.00012635,0.0,0 STARLINK-4262,1 53015U 22076AF  23329.92924084  .00012635  00000-0  81001-3 0  9998,2 53015  53.2162 231.5106 0001278  85.7512 274.3626 15.08862326 76968,6917.812,95.436,540.561,538.793,0.0
